SITRO-AIS 6 (CHIRKIN)   
1 57192U 23091AC  26166.14694799  .00009603  00000+0  37645-3 0  9994
2 57192  97.5072 229.1566 0013097 112.7159 247.5465 15.25902754163972
SITRO-AIS 8 (ANOKHIN)   
1 57193U 23091AD  26166.19318602  .00012294  00000+0  39833-3 0  9997
2 57193  97.5062 231.6539 0011814 106.0238 254.2306 15.32089193164149
SITRO-AIS 7 (FARTUSHNIY)
1 57194U 23091AE  26166.14968054  .00008415  00000+0  33338-3 0  9999
2 57194  97.5070 228.9854 0012938 113.6715 246.5882 15.25589823163969
AVION KALUGA 650        
1 57195U 23091AF  26166.18769281  .00004988  00000+0  23219-3 0  9993
2 57195  97.5092 225.7720 0011861 115.2938 244.9527 15.20333269163728
HORS 2                  
1 57196U 23091AG  26166.13924059  .00012489  00000+0  40796-3 0  9999
2 57196  97.5095 233.1407 0009420  94.0027 266.2291 15.31849169164211
A-SEANSAT-PG1           
1 57197U 23091AH  26166.18819031  .00015415  00000+0  42873-3 0  9998
2 57197  97.5086 235.7266 0008372  90.8735 269.3468 15.36901617164401
SITRO-AIS 10 (BURDAEV)  
1 57199U 23091AK  26166.16807083  .00016563  00000+0  43672-3 0  9995
2 57199  97.5088 236.6616 0007643  86.2092 274.0027 15.38545997164455
SITRO-AIS 9 (SHCHUKIN)  
1 57201U 23091AM  26166.19382808  .00015728  00000+0  42147-3 0  9993
2 57201  97.5085 236.4196 0007878  86.3283 273.8863 15.38056901164446
UTMN 2 (RS27S)          
1 57203U 23091AP  26166.16667566  .00010186  00000+0  33166-3 0  9993
2 57203  97.5093 233.3594 0009370  89.8342 270.3973 15.32009178164237
SITRO-AIS 12 (SMIRENNIY)
1 57204U 23091AQ  26166.18482875  .00016279  00000+0  43206-3 0  9999
2 57204  97.5098 236.8764 0007436  81.3128 278.8959 15.38348571164461
SITRO-AIS 11 (SHEFFER)  
1 57208U 23091AU  26166.13376631  .00019262  00000+0  50365-3 0  9999
2 57208  97.5097 237.0693 0007323  81.5105 278.6970 15.38774250164479
H2SAT (HEINRICH HERTZ)  
1 57213U 23093A   26165.68239000  .00000009  00000+0  00000+0 0  9990
2 57213   0.0576 110.9536 0000860  82.8758 315.5159  1.00272092 10895
KUZGTU 1 (RS47S)        
1 57217U 23091AV  26166.13726875  .00011756  00000+0  40859-3 0  9995
2 57217  97.5069 230.5962 0012346 104.3201 255.9411 15.29823419164062
QIANKUN-1               
1 57422U 23103B   26165.68125834  .00020608  18485-5  23067-4 0  9995
2 57422  96.1498 210.7043 0029538 144.4665 215.8596 16.08793316166893
FENGYUN 3F              
1 57490U 23111A   26166.14212078  .00000054  00000+0  45887-4 0  9993
2 57490  98.6835 236.1888 0001583  94.9423 265.1934 14.19938807148575
HJ-2F                   
1 57519U 23116A   26166.08331310  .00007507  00000+0  32844-3 0  9992
2 57519  97.3836 171.3385 0010038  58.3932 301.8283 15.22296054158437
XRISM                   
1 57800U 23137A   26165.94681589  .00004701  00000+0  25816-3 0  9992
2 57800  31.0032  14.1135 0007968 301.5988  58.3873 15.12448733152527
METEOR-M2 4             
1 59051U 24039A   26166.21385591 -.00000003  00000+0  18433-4 0  9999
2 59051  98.7010 125.5367 0007178 166.5197 193.6174 14.22429364118989
GRBBETA                 
1 60237U 24128C   26165.89714432  .00003158  00000+0  22262-3 0  9996
2 60237  61.9891 224.3011 0040926 134.1963 226.2505 15.06627135105920
TRANSPORTER-11 OBJECT A 
1 60468U 24149A   26166.19514656  .00006911  00000+0  22011-3 0  9997
2 60468  97.3737 246.1308 0002576 201.3235 158.7900 15.32878237101752
WARATAH SEED-1          
1 60469U 24149B   26166.15660317  .00010896  00000+0  31403-3 0  9992
2 60469  97.3697 246.7290 0001342 184.2479 175.8754 15.35901902101805
PHISAT 2                
1 60470U 24149C   26166.08659149  .00008693  00000+0  29247-3 0  9992
2 60470  97.3763 245.3143 0000853 177.1231 183.0016 15.31032831101675
LEMUR-2-TOMATOKECHUP    
1 60471U 24149D   26166.15296035  .00009833  00000+0  28281-3 0  9996
2 60471  97.3806 248.1941 0001239 179.4574 180.6671 15.35998019101858
CONNECTA IOT-1          
1 60472U 24149E   26166.19114999  .00003409  00000+0  14570-3 0  9998
2 60472  97.3762 242.5159 0000413 321.6973  38.4235 15.23526920101497
LOPEN                   
1 60473U 24149F   26166.18061464  .00012753  00000+0  32543-3 0  9998
2 60473  97.3788 249.5325 0000709 183.9235 176.2005 15.39637703101952
ROCK                    
1 60474U 24149G   26166.16718084  .00012259  00000+0  31299-3 0  9992
2 60474  97.3781 249.5347 0000924 197.4816 162.6398 15.39632671101957
CONNECTA IOT-3          
1 60475U 24149H   26166.14686326  .00003576  00000+0  15264-3 0  9990
2 60475  97.3738 242.2261 0001314 268.3351  91.7736 15.23538491101496
QUBE                    
1 60476U 24149J   26166.16846362  .00018811  00000+0  37261-3 0  9990
2 60476  97.3783 252.5626 0001759 200.4975 159.6205 15.47111993102157
WREN-1                  
1 60478U 24149L   26166.18693253  .00016736  00000+0  40100-3 0  9993
2 60478  97.3769 250.2782 0003140 258.4141 101.6754 15.41487839102015
